CCSDS_OEM_VERS = 2.0
CREATION_DATE  = 2024-06-28T16:14:36.949
ORIGINATOR     = NASA/JSC/FOD/TOPO

META_START
OBJECT_NAME          = ISS
OBJECT_ID            = 1998-067-A
CENTER_NAME          = Earth
REF_FRAME            = EME2000
TIME_SYSTEM          = UTC
START_TIME           = 2024-06-28T12:00:00.000
USEABLE_START_TIME   = 2024-06-28T12:00:00.000
USEABLE_STOP_TIME    = 2024-07-13T12:00:00.000
STOP_TIME            = 2024-07-13T12:00:00.000
META_STOP

COMMENT Source: This file was produced by the TOPO office within FOD at JSC.
COMMENT Units are in kg and m^2
COMMENT MASS=473145.00
COMMENT DRAG_AREA=1681.50
COMMENT DRAG_COEFF=3.75
COMMENT SOLAR_RAD_AREA=0.00
COMMENT SOLAR_RAD_COEFF=0.00
COMMENT Orbits start at the ascending node epoch
COMMENT ISS first asc. node: EPOCH = 2024-06-28T13:10:03.944 $ ORBIT = 2031 $ LAN(DEG) = 144.37799
COMMENT ISS last asc. node : EPOCH = 2024-07-13T10:40:33.561 $ ORBIT = 2262 $ LAN(DEG) = 93.30548
COMMENT Begin sequence of events
COMMENT TRAJECTORY EVENT SUMMARY:
COMMENT 
COMMENT |       EVENT        |       TIG        | ORB |   DV    |   HA    |   HP    |
COMMENT |                    |       GMT        |     |   M/S   |   KM    |   KM    |
COMMENT |                    |                  |     |  (F/S)  |  (NM)   |  (NM)   |
COMMENT =============================================================================
COMMENT  GMT181 Reboost        181:22:39:00.000             0.8     428.0     405.4
COMMENT                                                    (2.6)   (231.1)   (218.9)
COMMENT 
COMMENT =============================================================================
COMMENT End sequence of events
2024-06-29T12:45:00.000 3927.230128792070 -1594.470815132440 5298.334559067270 2.43222020162435 7.26067419412242 0.39112339673671
2024-06-29T12:49:00.000 4360.876381615250 184.945365642559 5197.605915780030 1.15958074960498 7.47713350592228 -1.22518103677161
2024-06-29T12:53:00.000 4477.129671440960 1950.912005595480 4717.500150179130 -0.19660009363116 7.14939864724287 -2.75105492357432
2024-06-29T12:57:00.000 4267.701899202660 3574.970791866120 3893.244890898070 -1.53789394952936 6.30184936260288 -4.07559656013213
2024-06-29T13:01:00.000 3747.945311857060 4939.083619841700 2785.083280420860 -2.76690036980936 4.99646601040293 -5.10249809761391
2024-06-29T13:05:00.000 2955.758496679630 5944.204726234570 1473.903131427840 -3.79429144979968 3.32860325937667 -5.75709932134712
2024-06-29T13:09:00.000 1948.838937063100 6517.520649337930 55.333974488068 -4.54545084303049 1.42017011143932 -5.99201086471497
2024-06-29T13:13:00.000 800.446623844568 6617.772815810950 -1367.282406492860 -4.96612260393578 -0.58944715276263 -5.79075823389508
2024-06-29T13:17:00.000 -406.000658382000 6238.207800021340 -2690.504714298300 -5.02644106329097 -2.55393739379829 -5.16896550052460
2024-06-29T13:21:00.000 -1583.067623367290 5406.900790506570 -3818.364500178010 -4.72291885805239 -4.33118656662363 -4.17280077624056
2024-06-29T13:25:00.000 -2645.643885250240 4184.496335486350 -4669.269765410270 -4.07823481203647 -5.79349453164603 -2.87509915823699
2024-06-29T13:29:00.000 -3517.016934915310 2659.656456594250 -5181.759809878330 -3.13919398936579 -6.83639489305812 -1.36972226545141
2024-06-29T13:33:00.000 -4134.250613284790 942.633355087795 -5318.754153953810 -1.97310544779922 -7.38537578927926 0.23520060199614
2024-06-29T13:37:00.000 -4452.572927893380 -842.520790716960 -5070.110618147080 -0.66318446545981 -7.40057639255366 1.82455756568554
2024-06-29T13:41:00.000 -4448.553658609980 -2566.642766019130 -4453.390933535930 0.69690559613311 -6.87955023553616 3.28388687903879
2024-06-29T13:45:00.000 -4121.889661913200 -4104.560800755430 -3512.777030151430 2.00918427239220 -5.85795077774824 4.50710279058232
2024-06-29T13:49:00.000 -3495.634384038320 -5344.095929599680 -2316.136690131760 3.17816376068329 -4.40788969130029 5.40414662721960
2024-06-29T13:53:00.000 -2614.762670447450 -6194.337500539770 -950.327912771941 4.11778916621792 -2.63354664305528 5.90788525891980
2024-06-29T13:57:00.000 -1543.098106354040 -6592.558318174310 485.010315435782 4.75812680674539 -0.66423732272045 5.97973811750343
2024-06-29T14:01:00.000 -358.710277870789 -6509.158570499240 1884.800967979200 5.05123917189802 1.35509636245119 5.61339355640819
2024-06-29T14:05:00.000 851.891271610625 -5950.050542179610 3146.445358457340 4.97521575276620 3.27544950550260 4.83566460908010
2024-06-29T14:09:00.000 2000.254374625800 -4956.220496663880 4177.552370866770 4.53586253044630 4.95545998241971 3.70421730154323
2024-06-29T14:13:00.000 3002.596728469240 -3600.555142805020 4902.819116250360 3.76595991272183 6.27232625113236 2.30278692512318
2024-06-29T14:17:00.000 3785.964755444070 -1982.278772354870 5269.506432702840 2.72233345231160 7.13064425403804 0.73445145371509
2024-06-29T14:21:00.000 4293.493787548140 -219.557044305076 5251.171731210660 1.48139246111077 7.46884870606679 -0.88607387849732
2024-06-29T14:25:00.000 4488.459627697140 1559.161050550180 4849.469890570450 0.13353032035647 7.26327181807631 -2.44078566779058
2024-06-29T14:29:00.000 4356.861551093060 3224.451130392850 4093.931596971470 -1.22338758708677 6.52945566658076 -3.81671422390767
2024-06-29T14:33:00.000 3908.409415264550 4655.249459323760 3039.807875164960 -2.49082358122289 5.32116364306209 -4.91381172577310
2024-06-29T14:37:00.000 3175.829228901160 5747.635996126750 1764.060448474810 -3.57666760737186 3.72665411698675 -5.65230786756481
2024-06-29T14:41:00.000 2212.499534969370 6422.418365285800 359.754927607114 -4.40202571324940 1.86248976195487 -5.97863854450905
2024-06-29T14:45:00.000 1088.536462957920 6630.933160846240 -1070.768719040380 -4.90718637795993 -0.13508666251267 -5.86958841622437
2024-06-29T14:49:00.000 -114.378922107863 6358.553482212790 -2423.443534928010 -5.05609068872706 -2.12050911716865 -5.33403482717621
2024-06-29T14:53:00.000 -1309.022846375640 5625.602500482330 -3600.107227256330 -4.83883183280318 -3.94992186522501 -4.41193393095986
2024-06-29T14:57:00.000 -2408.981306478510 4485.656056522780 -4515.597415262360 -4.27193980311695 -5.49173846201154 -3.17090168904537
2024-06-29T15:01:00.000 -3334.827560409730 3021.472480059040 -5103.777739547810 -3.39669419697809 -6.63570917117048 -1.70087137976278
2024-06-29T15:05:00.000 -4019.711040988320 1338.968610375160 -5322.131421427940 -2.27597781740188 -7.30015266603988 -0.10756933929269
2024-06-29T15:09:00.000 -4414.027024011770 -440.306833900131 -5154.684525080680 -0.98978780103708 -7.43715835304712 1.49477947132120
2024-06-29T15:13:00.000 -4488.903815885000 -2187.686216005400 -4613.149548897650 0.37001936923487 -7.03568014948687 2.99094710800434
2024-06-29T15:17:00.000 -4238.350151846320 -3776.420252359890 -3736.244116899100 1.70569556460399 -6.12277894337473 4.27242014341282
2024-06-29T15:21:00.000 -3679.880452749960 -5090.742233445570 -2587.150969776090 2.92025046266785 -4.76253249396290 5.24507903161313
2024-06-29T15:25:00.000 -2853.494814727210 -6034.374963883600 -1249.187768542580 3.92448911864811 -3.05242687841475 5.83639731236009
2024-06-29T15:29:00.000 -1818.965560161070 -6537.811609910370 180.133215370160 4.64391948502377 -1.11673310898660 6.00144009844017
2024-06-29T15:33:00.000 -651.573956640490 -6563.715904424130 1596.241687590960 5.02470395143892 0.90237333910963 5.72683879839296
2024-06-29T15:37:00.000 563.446265666433 -6109.931492203340 2895.348927043680 5.03833979755440 2.85591130391072 5.03246495089537
2024-06-29T15:41:00.000 1737.309023095130 -5209.680002425190 3982.283986504460 4.68389674980160 4.59997370743580 3.96974510942303
2024-06-29T15:45:00.000 2784.321525052360 -3928.994263640270 4777.598752900610 3.98786041760064 6.00677393388116 2.61738594160688
2024-06-29T15:49:00.000 3628.222016379300 -2361.670419088340 5223.396564609740 3.00177294004402 6.97414525212324 1.07506289300703
2024-06-29T15:53:00.000 4207.715414518880 -622.218698828479 5287.450980266600 1.79798335135825 7.43258348926686 -0.54431482977277
2024-06-29T15:57:00.000 4480.830370353270 1162.554604962490 4965.410215023350 0.46421300342700 7.34965301297255 -2.12273880334680
2024-06-29T16:01:00.000 4427.888704229700 2862.740951542400 4281.025231868190 -0.90259743681739 6.73209400522151 -3.54543483423679
2024-06-29T16:05:00.000 4052.889593881820 4354.720696153320 3284.381084802990 -2.20323647489912 5.62524470012701 -4.70901558952201
2024-06-29T16:09:00.000 3383.221165112720 5530.104544007830 2048.263397418950 -3.34319199890979 4.10997477023228 -5.52886758532762
2024-06-29T16:13:00.000 2467.689422520410 6303.636330315100 662.865941214355 -4.23960218872944 2.29703813892324 -5.94545331357438
2024-06-29T16:17:00.000 1372.953342857620 6619.442586970440 -770.818425465849 -4.82751526110722 0.31899218948727 -5.92891923685558
2024-06-29T16:21:00.000 178.602127326185 6455.081255563420 -2148.448951570940 -5.06479405167961 -1.67992083081176 -5.48136187471706
2024-06-29T16:25:00.000 -1028.713685535900 5823.039041679360 -3369.999187378760 -4.93503932799492 -3.55468918065116 -4.63635334411469
2024-06-29T16:29:00.000 -2161.605078272900 4769.625729115700 -4347.013882617170 -4.44849313467971 -5.17018120043180 -3.45607317957465
2024-06-29T16:33:00.000 -3138.243974796990 3371.415699362980 -5008.906540536780 -3.64086592271333 -6.41079185518274 -2.02626522720051
2024-06-29T16:37:00.000 -3888.134571293670 1729.603924892700 -5307.862346518930 -2.57027839015490 -7.18801845423851 -0.44981530328410
2024-06-29T16:41:00.000 -4357.022186748440 -37.196083561824 -5222.124310078310 -1.31319421906717 -7.44600403320353 1.16021960363049
2024-06-29T16:45:00.000 -4510.705112155030 -1801.277665617510 -4757.534890189770 0.04067266097946 -7.16525580307804 2.68819742700843
2024-06-29T16:49:00.000 -4337.522301216750 -3434.792852043860 -3947.232093564240 1.39421630549325 -6.36419052532150 4.02356880470577
